{
  "type": "FeatureCollection",
  "features": [
    {
      "type": "Feature",
      "properties": {
        "norad_id": 33860,
        "name": "IRIDIUM 33 DEB",
        "group": "iridium-33-debris",
        "lat": 40.27909809011621,
        "lon": 28.296093140471715,
        "alt_km": 663.7533926193437,
        "timestamp": "2025-12-17T07:00:47.292824+00:00",
        "meta_object_name": "IRIDIUM 33 DEB",
        "meta_object_id": "1997-051AD",
        "meta_epoch": "2025-12-16T20:10:17.664672",
        "meta_mean_motion": 14.6742014,
        "meta_eccentricity": 0.00069329,
        "meta_inclination": 86.3832,
        "meta_ra_of_asc_node": 25.4234,
        "meta_arg_of_pericenter": 342.8296,
        "meta_mean_anomaly": 192.7464,
        "meta_ephemeris_type": 0,
        "meta_classification_type": "U",
        "meta_norad_cat_id": 33860,
        "meta_element_set_no": 999,
        "meta_rev_at_epoch": 88782,
        "meta_bstar": 0.00087524294,
        "meta_mean_motion_dot": 4.973e-05,
        "meta_mean_motion_ddot": 0,
        "tle_line1": "1 33860U 97051AD  25350.84048223  .00004973  00000+0  87524-3 0  9999",
        "tle_line2": "2 33860  86.3832  25.4234 0006932 342.8296 192.7464 14.67420140887821"
      },
      "geometry": {
        "type": "Point",
        "coordinates": [
          28.296093140471715,
          40.27909809011621
        ]
      }
    },
    {
      "type": "Feature",
      "properties": {
        "norad_id": 33862,
        "name": "IRIDIUM 33 DEB",
        "group": "iridium-33-debris",
        "lat": 68.82481276917564,
        "lon": -153.80548760850314,
        "alt_km": 635.3744209597844,
        "timestamp": "2025-12-17T07:00:47.292836+00:00",
        "meta_object_name": "IRIDIUM 33 DEB",
        "meta_object_id": "1997-051AF",
        "meta_epoch": "2025-12-16T16:22:06.218688",
        "meta_mean_motion": 14.69541071,
        "meta_eccentricity": 0.00530982,
        "meta_inclination": 86.4093,
        "meta_ra_of_asc_node": 35.7923,
        "meta_arg_of_pericenter": 56.0255,
        "meta_mean_anomaly": 68.2506,
        "meta_ephemeris_type": 0,
        "meta_classification_type": "U",
        "meta_norad_cat_id": 33862,
        "meta_element_set_no": 999,
        "meta_rev_at_epoch": 88881,
        "meta_bstar": 0.0010087056,
        "meta_mean_motion_dot": 6.14e-05,
        "meta_mean_motion_ddot": 0,
        "tle_line1": "1 33862U 97051AF  25350.68201642  .00006140  00000+0  10087-2 0  9996",
        "tle_line2": "2 33862  86.4093  35.7923 0053098  56.0255  68.2506 14.69541071888819"
      },
      "geometry": {
        "type": "Point",
        "coordinates": [
          -153.80548760850314,
          68.82481276917564
        ]
      }
    },
    {
      "type": "Feature",
      "properties": {
        "norad_id": 33866,
        "name": "IRIDIUM 33 DEB",
        "group": "iridium-33-debris",
        "lat": 7.585744929449827,
        "lon": -89.38410641753066,
        "alt_km": 734.7864704916374,
        "timestamp": "2025-12-17T07:00:47.292848+00:00",
        "meta_object_name": "IRIDIUM 33 DEB",
        "meta_object_id": "1997-051AK",
        "meta_epoch": "2025-12-16T19:01:21.853056",
        "meta_mean_motion": 14.25288493,
        "meta_eccentricity": 0.01147919,
        "meta_inclination": 86.3001,
        "meta_ra_of_asc_node": 91.321,
        "meta_arg_of_pericenter": 148.5346,
        "meta_mean_anomaly": 341.3253,
        "meta_ephemeris_type": 0,
        "meta_classification_type": "U",
        "meta_norad_cat_id": 33866,
        "meta_element_set_no": 999,
        "meta_rev_at_epoch": 86868,
        "meta_bstar": 0.00046900019,
        "meta_mean_motion_dot": 1.202e-05,
        "meta_mean_motion_ddot": 0,
        "tle_line1": "1 33866U 97051AK  25350.79261404  .00001202  00000+0  46900-3 0  9992",
        "tle_line2": "2 33866  86.3001  91.3210 0114791 148.5346 341.3253 14.25288493868689"
      },
      "geometry": {
        "type": "Point",
        "coordinates": [
          -89.38410641753066,
          7.585744929449827
        ]
      }
    },
    {
      "type": "Feature",
      "properties": {
        "norad_id": 33867,
        "name": "IRIDIUM 33 DEB",
        "group": "iridium-33-debris",
        "lat": 86.35916523015403,
        "lon": 79.7556536456378,
        "alt_km": 323.72532860565934,
        "timestamp": "2025-12-17T07:00:47.292861+00:00",
        "meta_object_name": "IRIDIUM 33 DEB",
        "meta_object_id": "1997-051AL",
        "meta_epoch": "2025-12-16T23:00:50.413248",
        "meta_mean_motion": 15.75812289,
        "meta_eccentricity": 0.00135861,
        "meta_inclination": 86.3641,
        "meta_ra_of_asc_node": 347.9009,
        "meta_arg_of_pericenter": 91.0972,
        "meta_mean_anomaly": 269.1858,
        "meta_ephemeris_type": 0,
        "meta_classification_type": "U",
        "meta_norad_cat_id": 33867,
        "meta_element_set_no": 999,
        "meta_rev_at_epoch": 89577,
        "meta_bstar": 0.0069135069,
        "meta_mean_motion_dot": 0.01194972,
        "meta_mean_motion_ddot": 0,
        "tle_line1": "1 33867U 97051AL  25350.95891682  .01194972  00000+0  69135-2 0  9990",
        "tle_line2": "2 33867  86.3641 347.9009 0013586  91.0972 269.1858 15.75812289895773"
      },
      "geometry": {
        "type": "Point",
        "coordinates": [
          79.7556536456378,
          86.35916523015403
        ]
      }
    },
    {
      "type": "Feature",
      "properties": {
        "norad_id": 33870,
        "name": "IRIDIUM 33 DEB",
        "group": "iridium-33-debris",
        "lat": -67.29915468330964,
        "lon": -114.97375200951889,
        "alt_km": 744.9173084055337,
        "timestamp": "2025-12-17T07:00:47.292872+00:00",
        "meta_object_name": "IRIDIUM 33 DEB",
        "meta_object_id": "1997-051AP",
        "meta_epoch": "2025-12-16T05:12:29.078208",
        "meta_mean_motion": 14.45870767,
        "meta_eccentricity": 0.00218863,
        "meta_inclination": 86.3748,
        "meta_ra_of_asc_node": 56.7702,
        "meta_arg_of_pericenter": 166.7882,
        "meta_mean_anomaly": 247.4368,
        "meta_ephemeris_type": 0,
        "meta_classification_type": "U",
        "meta_norad_cat_id": 33870,
        "meta_element_set_no": 999,
        "meta_rev_at_epoch": 88187,
        "meta_bstar": 0.00056447211,
        "meta_mean_motion_dot": 2.03e-05,
        "meta_mean_motion_ddot": 0,
        "tle_line1": "1 33870U 97051AP  25350.21700322  .00002030  00000+0  56447-3 0  9998",
        "tle_line2": "2 33870  86.3748  56.7702 0021886 166.7882 247.4368 14.45870767881874"
      },
      "geometry": {
        "type": "Point",
        "coordinates": [
          -114.97375200951889,
          -67.29915468330964
        ]
      }
    },
    {
      "type": "Feature",
      "properties": {
        "norad_id": 33881,
        "name": "IRIDIUM 33 DEB",
        "group": "iridium-33-debris",
        "lat": -67.69246011555796,
        "lon": 95.9023670081611,
        "alt_km": 740.4238664944332,
        "timestamp": "2025-12-17T07:00:47.292884+00:00",
        "meta_object_name": "IRIDIUM 33 DEB",
        "meta_object_id": "1997-051BA",
        "meta_epoch": "2025-12-16T20:22:46.379424",
        "meta_mean_motion": 14.56649424,
        "meta_eccentricity": 0.00614749,
        "meta_inclination": 86.386,
        "meta_ra_of_asc_node": 104.9563,
        "meta_arg_of_pericenter": 161.413,
        "meta_mean_anomaly": 328.223,
        "meta_ephemeris_type": 0,
        "meta_classification_type": "U",
        "meta_norad_cat_id": 33881,
        "meta_element_set_no": 999,
        "meta_rev_at_epoch": 87560,
        "meta_bstar": 0.0015152662,
        "meta_mean_motion_dot": 6.959e-05,
        "meta_mean_motion_ddot": 0,
        "tle_line1": "1 33881U 97051BA  25350.84914791  .00006959  00000+0  15153-2 0  9998",
        "tle_line2": "2 33881  86.3860 104.9563 0061474 161.4130 328.2230 14.56649424875603"
      },
      "geometry": {
        "type": "Point",
        "coordinates": [
          95.9023670081611,
          -67.69246011555796
        ]
      }
    },
    {
      "type": "Feature",
      "properties": {
        "norad_id": 33884,
        "name": "IRIDIUM 33 DEB",
        "group": "iridium-33-debris",
        "lat": -39.44355774442383,
        "lon": -169.2421541842488,
        "alt_km": 643.3962845752612,
        "timestamp": "2025-12-17T07:00:47.292895+00:00",
        "meta_object_name": "IRIDIUM 33 DEB",
        "meta_object_id": "1997-051BD",
        "meta_epoch": "2025-12-16T23:48:52.081344",
        "meta_mean_motion": 14.77513919,
        "meta_eccentricity": 0.0009261,
        "meta_inclination": 86.3695,
        "meta_ra_of_asc_node": 7.8991,
        "meta_arg_of_pericenter": 307.2606,
        "meta_mean_anomaly": 117.9093,
        "meta_ephemeris_type": 0,
        "meta_classification_type": "U",
        "meta_norad_cat_id": 33884,
        "meta_element_set_no": 999,
        "meta_rev_at_epoch": 88910,
        "meta_bstar": 0.0011874534,
        "meta_mean_motion_dot": 8.5e-05,
        "meta_mean_motion_ddot": 0,
        "tle_line1": "1 33884U 97051BD  25350.99226946  .00008500  00000+0  11875-2 0  9996",
        "tle_line2": "2 33884  86.3695   7.8991 0009261 307.2606 117.9093 14.77513919889104"
      },
      "geometry": {
        "type": "Point",
        "coordinates": [
          -169.2421541842488,
          -39.44355774442383
        ]
      }
    }
  ]
}